IRIDIUM 8 [+]           
1 24792U 97020A   16102.50901029  .00000014  00000-0 -21416-5 0  9993
2 24792  86.3955 139.1748 0002396  93.5006 266.6464 14.34218918991327
IRIDIUM 7 [+]           
1 24793U 97020B   16102.50266699  .00000112  00000-0  33017-4 0  9998
2 24793  86.3961 139.4368 0002367  93.0308 267.1159 14.34220002991328
IRIDIUM 6 [+]           
1 24794U 97020C   16102.49625112  .00000107  00000-0  31078-4 0  9995
2 24794  86.3959 139.3800 0002317  93.0547 267.0914 14.34219744991325
IRIDIUM 5 [+]           
1 24795U 97020D   16102.48995592  .00000159  00000-0  49809-4 0  9995
2 24795  86.3942 139.4244 0002263  95.3920 264.7534 14.34220236991400
IRIDIUM 4 [-]           
1 24796U 97020E   16102.55699043  .00000156  00000-0  47654-4 0  9999
2 24796  86.3952 138.5938 0002384  91.2930  20.4095 14.35068785991401
IRIDIUM 914 [-]         
1 24836U 97030A   16102.49329532  .00000129  00000-0  35622-4 0  9993
2 24836  86.3961 156.5203 0003946  90.5120 269.6531 14.38669070986873
IRIDIUM 12 [+]          
1 24837U 97030B   16102.23813701  .00000215  00000-0  69725-4 0  9999
2 24837  86.4001 170.6655 0002342  97.1199 320.2676 14.34221202985034
IRIDIUM 10 [+]          
1 24839U 97030D   16102.29717206  .00000216  00000-0  70127-4 0  9999
2 24839  86.4001 170.6234 0002391  97.2459 330.2197 14.34220699985053
IRIDIUM 13 [+]          
1 24840U 97030E   16102.44271711  .00000220  00000-0  71368-4 0  9997
2 24840  86.4003 170.6935 0002406 100.7881 259.3586 14.34219799985064
IRIDIUM 16 [-]          
1 24841U 97030F   16102.44276223  .00000181  00000-0  54753-4 0  9996
2 24841  86.4081 170.8255 0000729 169.9507 190.1705 14.36613049985597
IRIDIUM 911 [-]         
1 24842U 97030G   16102.24792672  .00000181  00000-0  46088-4 0  9998
2 24842  86.4509 171.9435 0016869  86.8838 273.4293 14.44840389990570
IRIDIUM 15 [+]          
1 24869U 97034A   16102.37663079  .00000256  00000-0  84228-4 0  9994
2 24869  86.4015 202.2938 0002250  99.2897 327.9082 14.34219776982020
IRIDIUM 17 [-]          
1 24870U 97034B   16102.33372299  .00000176  00000-0  54202-4 0  9993
2 24870  86.4021 201.0805 0002573 130.6934 229.4486 14.35658198982209
IRIDIUM 920 [-]         
1 24871U 97034C   16102.47059374  .00000133  00000-0  36524-4 0  9995
2 24871  86.4033 188.2648 0010266 330.0605  30.0005 14.39389455984243
IRIDIUM 18 [+]          
1 24872U 97034D   16102.32557646  .00000245  00000-0  80247-4 0  9990
2 24872  86.4019 202.5451 0002131  98.0544 262.0893 14.34220294982010
IRIDIUM 921 [-]         
1 24873U 97034E   16102.54394156  .00002513  00000-0  15143-3 0  9992
2 24873  86.3900 269.7831 0008918 151.4322 208.7406 15.10267893 22926
IRIDIUM 26 [-]          
1 24903U 97043A   16102.47669411  .00000152  00000-0  46194-4 0  9995
2 24903  86.3945  75.5506 0002086  85.2829  31.4068 14.35179522976051
IRIDIUM 25 [+]          
1 24904U 97043B   16102.41339974  .00000022  00000-0  67237-6 0  9997
2 24904  86.3940  75.9502 0002164  84.4873 275.6570 14.34216417975934
IRIDIUM 46 [+]          
1 24905U 97043C   16102.42608142  .00000015  00000-0 -18424-5 0  9991
2 24905  86.3948  76.4595 0002240  83.7810 276.3641 14.34216570975947
IRIDIUM 23 [S]          
1 24906U 97043D   16102.44155910  .00000012  00000-0 -26662-5 0  9994
2 24906  86.3951  75.9211 0002215  78.0604  34.6784 14.34216461975954
IRIDIUM 22 [+]          
1 24907U 97043E   16102.46418383  .00000021  00000-0  51021-6 0  9990
2 24907  86.3949  76.5479 0002252  85.2629 274.8824 14.34218481975949
DUMMY MASS 1 [-]        
1 24925U 97048A   16101.87277253  .00000162  00000-0  15705-4 0  9991
2 24925  86.3353 242.6655 0008994 121.1633 239.0474 14.85066082  7421
DUMMY MASS 2 [-]        
1 24926U 97048B   16102.45040187  .00000162  00000-0  15693-4 0  9997
2 24926  86.3353 243.4440 0009693 126.1464 234.0658 14.84834835  7367
IRIDIUM 29 [-]          
1 24944U 97051A   16102.50035975  .00000130  00000-0  39201-4 0  9992
2 24944  86.3923 107.4775 0002534  89.5996 270.5490 14.34568103972535
IRIDIUM 32 [+]          
1 24945U 97051B   16102.49291587  .00000005  00000-0 -51600-5 0  9994
2 24945  86.3925 107.6000 0002288  84.7798 275.3659 14.34218122972548
IRIDIUM 33 [-]          
1 24946U 97051C   16102.52501065  .00000123  00000-0  37439-4 0  9997
2 24946  86.3838 107.4338 0007050 193.8969 166.2033 14.33479899972192
IRIDIUM 28 [-]          
1 24948U 97051E   16102.51033752  .00000140  00000-0  41957-4 0  9990
2 24948  86.3927 106.9500 0001892  92.1796 267.9617 14.35466072972643
IRIDIUM 30 [+]          
1 24949U 97051F   16102.48655846 -.00000002  00000-0 -79054-5 0  9990
2 24949  86.3926 107.6916 0002246  82.7180 277.4271 14.34216806972524
IRIDIUM 31 [+]          
1 24950U 97051G   16102.48020427  .00000006  00000-0 -47696-5 0  9993
2 24950  86.3926 107.6947 0002438  91.6829 268.4646 14.34215128972535
IRIDIUM 19 [+]          
1 24965U 97056A   16102.53437863  .00000023  00000-0  10321-5 0  9999
2 24965  86.3958 139.1724 0002373  93.9128 266.2339 14.34218830970686
IRIDIUM 35 [+]          
1 24966U 97056B   16102.47728931  .00000017  00000-0 -10145-5 0  9990
2 24966  86.3956 139.1932 0002359  93.9916 266.1550 14.34219379970655
IRIDIUM 36 [-]          
1 24967U 97056C   16102.53055220  .00000132  00000-0  38878-4 0  9991
2 24967  86.3966 138.5674 0002423  94.6723 265.4750 14.35514689970937
IRIDIUM 37 [+]          
1 24968U 97056D   16102.52169270  .00000026  00000-0  21117-5 0  9993
2 24968  86.3959 139.3485 0002401  93.8629 266.2841 14.34219277970665
IRIDIUM 34 [+]          
1 24969U 97056E   16102.47094449  .00000053  00000-0  11725-4 0  9996
2 24969  86.3959 139.3069 0002355  95.2009 264.9456 14.34218978970653
IRIDIUM 43 [+]          
1 25039U 97069A   16102.31924967  .00000335  00000-0  11240-3 0  9993
2 25039  86.4035 202.4672 0002330 101.6370 258.5088 14.34219574964416
IRIDIUM 41 [+]          
1 25040U 97069B   16102.32390269  .00000260  00000-0  85926-4 0  9998
2 25040  86.4017 202.4330 0002064  97.1676 319.7937 14.34220326964411
IRIDIUM 40 [+]          
1 25041U 97069C   16102.33827329  .00000300  00000-0  10014-3 0  9992
2 25041  86.4031 202.6481 0003116 110.3829 249.7701 14.34217725964436
IRIDIUM 39 [+]          
1 25042U 97069D   16102.48414786  .00000280  00000-0  92941-4 0  9995
2 25042  86.4042 202.6465 0002046  94.4023 265.7407 14.34218282964430
IRIDIUM 38 [-]          
1 25043U 97069E   16102.32791143  .00000150  00000-0  44902-4 0  9994
2 25043  86.4020 200.1341 0001132 120.9328 239.1980 14.35935313964759
IRIDIUM 42 [-]          
1 25077U 97077A   16102.47935809  .00000049  00000-0  10337-4 0  9997
2 25077  86.4021 202.3861 0002044  98.3410 261.8018 14.34468246960307
IRIDIUM 44 [-]          
1 25078U 97077B   16102.32254660  .00000245  00000-0  74577-4 0  9995
2 25078  86.4022 193.1020 0001136 145.8919 214.2352 14.38018198961569
IRIDIUM 45 [+]          
1 25104U 97082A   16102.05524475  .00000006  00000-0 -48035-5 0  9992
2 25104  86.3923 107.9156 0001011  84.3573 275.7738 14.34214571958437
IRIDIUM 24 [-]          
1 25105U 97082B   16102.39372604  .00000220  00000-0  63960-4 0  9995
2 25105  86.3931  57.7782 0010724 337.6218  22.4512 14.39755541960729
IRIDIUM 47 [+]          
1 25106U 97082C   16102.43241446  .00000031  00000-0  40060-5 0  9997
2 25106  86.3937  75.8271 0002268  82.3189 277.8264 14.34216931958474
IRIDIUM 49 [+]          
1 25108U 97082E   16102.46711527  .00000016  00000-0 -13581-5 0  9996
2 25108  86.3940  75.9040 0002226  83.5829  30.1716 14.34216563958498
IRIDIUM 52 [+]          
1 25169U 98010A   16102.40463951  .00000206  00000-0  66414-4 0  9996
2 25169  86.4007 170.8714 0002370  97.8151 262.3314 14.34220928949896
IRIDIUM 56 [+]          
1 25170U 98010B   16102.25875408  .00000253  00000-0  83269-4 0  9994
2 25170  86.4013 171.0366 0002039  93.6685 266.4744 14.34222349949856
IRIDIUM 54 [+]          
1 25171U 98010C   16102.29047228  .00000206  00000-0  66386-4 0  9999
2 25171  86.4008 170.9377 0002386  98.0770 262.0697 14.34220977950025
IRIDIUM 50 [+]          
1 25172U 98010D   16102.26449597  .00000213  00000-0  68875-4 0  9995
2 25172  86.4007 170.9072 0002446  96.3633 326.1172 14.34221034949857
IRIDIUM 53 [+]          
1 25173U 98010E   16102.34121391  .00000207  00000-0  66902-4 0  9996
2 25173  86.4008 170.8811 0002381  97.6558 262.4908 14.34220846949878
IRIDIUM 51 [S]          
1 25262U 98018A   16102.49633451  .00000143  00000-0  43979-4 0  9992
2 25262  86.3953 139.4758 0002440  90.4240 269.7235 14.34219325949289
IRIDIUM 61 [+]          
1 25263U 98018B   16102.52804062  .00000019  00000-0 -13458-6 0  9999
2 25263  86.3959 139.3123 0002353  92.8433 267.3032 14.34218745944991
IRIDIUM 55 [+]          
1 25272U 98019A   16102.39140560  .00000015  00000-0 -18114-5 0  9990
2 25272  86.3924 107.5534 0002235  84.7071 275.4380 14.34214708944174
IRIDIUM 57 [+]          
1 25273U 98019B   16102.50557456  .00000006  00000-0 -48632-5 0  9998
2 25273  86.3928 107.7943 0002320  88.0240 272.1222 14.34214930944193
IRIDIUM 58 [+]          
1 25274U 98019C   16102.44214397 -.00000026  00000-0 -16429-4 0  9997
2 25274  86.3932 108.0058 0002244  82.6822 277.4629 14.34218843944186
IRIDIUM 59 [+]          
1 25275U 98019D   16102.44849513  .00000007  00000-0 -46929-5 0  9999
2 25275  86.3927 107.8797 0002357  84.5881 275.5584 14.34218587944183
IRIDIUM 60 [+]          
1 25276U 98019E   16102.45483170 -.00000033  00000-0 -18992-4 0  9992
2 25276  86.3922 107.5131 0002232  84.8925 275.2525 14.34214542944181
IRIDIUM 62 [+]          
1 25285U 98021A   16102.34650534  .00000132  00000-0  40181-4 0  9996
2 25285  86.3986  44.4337 0002264  80.0176 280.1275 14.34212346943129
IRIDIUM 63 [-]          
1 25286U 98021B   16102.35317147  .00000179  00000-0  56594-4 0  9994
2 25286  86.4013  44.8105 0002434  84.7123  27.7124 14.34579459943131
IRIDIUM 64 [+]          
1 25287U 98021C   16102.35919050  .00000061  00000-0  14698-4 0  9995
2 25287  86.3987  44.4672 0002210  87.8928 272.2521 14.34212195943101
